[
  {
    "OBJECT_NAME": "CANOPY-GPZ-FIXTURE-1",
    "OBJECT_ID": "2026-005A",
    "NORAD_CAT_ID": 99005,
    "EPOCH": "2026-05-02T00:00:00.000000",
    "MEAN_MOTION": 1.0028,
    "ECCENTRICITY": 0.00024,
    "INCLINATION": 0.08,
    "RA_OF_ASC_NODE": 87.3,
    "ARG_OF_PERICENTER": 211.0,
    "MEAN_ANOMALY": 149.0,
    "EPHEMERIS_TYPE": 0,
    "CLASSIFICATION_TYPE": "U",
    "ELEMENT_SET_NO": 1,
    "REV_AT_EPOCH": 16,
    "BSTAR": 0.0,
    "MEAN_MOTION_DOT": 0.0,
    "MEAN_MOTION_DDOT": 0.0
  }
]
